NOAA 2 (ITOS-D)
1 06235U 72082A   26186.07417205 -.00000027  00000-0  12344-3 0  9991
2 06235 102.0071 204.8415 0004486 132.8107 242.8266 12.53215652457195
SOLRAD-7B
1 01291U 65016D   26186.18097264  .00000017  00000-0  50959-4 0  9991
2 01291  70.0770 198.0086 0018391  98.5041 261.8150 13.94977776119214
OSCAR-7 (AO-7)
1 07530U 74089B   26186.25732965 -.00000046  00000-0 -20203-6 0  9990
2 07530 101.9900 199.6921 0012663  96.7175 325.8973 12.53698414362783
UOSAT-2 (UO-11)
1 14781U 84021B   26185.33680631  .00001623  00000-0  17048-3 0  9993
2 14781  97.8067 150.7210 0008909 121.3323 238.8769 14.90828993259683
FLTSATCOM-7 (USA-20)
1 17181U 86096A   26186.18503372 -.00000161  00000-0  00000-0 0  9998
2 17181  12.6865 339.9757 0040560 331.1789 221.6251  0.98930753152144
FLTSATCOM-8 (USA-46)
1 20253U 89077A   26185.81747321 -.00000359  00000-0  00000-0 0  9996
2 20253  12.4164 351.0573 0003727  63.5378 288.2309  1.00268361260734
OSCAR 16 (PACSAT)
1 20439U 90005D   26186.03056740  .00000172  00000-0  78239-4 0  9993
2 20439  98.8514 222.1280 0010699 173.4445 216.2480 14.33942694904499
LUSAT (LO-19)
1 20442U 90005G   26186.04272726  .00000161  00000-0  74139-4 0  9995
2 20442  98.8845 208.3399 0012108 149.1725 211.0172 14.34128851904959
UFO 2 (USA 95)
1 22787U 93056A   26186.15455704  .00000133  00000-0  00000-0 0  9990
2 22787  11.9009   3.4550 0004069   9.5921 354.4520  1.00277249118735
EYESAT-1 (AO-27)
1 22825U 93061C   26186.18004384  .00000151  00000-0  74236-4 0  9992
2 22825  98.6873 253.5864 0009241  53.0213 307.1814 14.30947411709571
ITAMSAT (IO-26)
1 22826U 93061D   26186.15408635  .00000155  00000-0  75456-4 0  9996
2 22826  98.6820 253.4798 0009522  37.5027 322.6818 14.31374787709882
UFO 3 (USA 104)
1 23132U 94035A   26186.21836031 -.00000095  00000-0  00000-0 0  9994
2 23132  12.3755   5.5990 0001366 265.6179  80.6416  1.00270001131872
RADIO ROSTO (RS-15)
1 23439U 94085A   26186.20855563 -.00000029  00000-0  37499-3 0  9991
2 23439  64.8175 274.0715 0156552   0.5463 359.5606 11.27583530297931
UFO 4 (USA 108)
1 23467U 95003A   26185.82657325 -.00000013  00000-0  00000-0 0  9994
2 23467   9.6812  13.0746 0003045  86.3475 293.2219  1.00274518115133
UFO 7 (USA 127)
1 23967U 96042A   26185.85422005 -.00000289  00000-0  00000-0 0  9996
2 23967  11.1335  16.9851 0006246 112.0691  52.6830  1.00207375109662
JAS-2 (FO-29)
1 24278U 96046B   26185.83332930 -.00000022  00000-0  11395-4 0  9999
2 24278  98.5226  32.2868 0350729  50.7729 312.3996 13.53275006475553
UFO 8 (USA 138)
1 25258U 98016A   26185.89411027 -.00000181  00000-0  00000-0 0  9991
2 25258  11.1515  22.6453 0003600 241.4595 133.8099  1.00267562104040
TECHSAT-1B (GO-32)
1 25397U 98043D   26186.18706267  .00000087  00000-0  57629-4 0  9998
2 25397  99.0075 179.4002 0001871 130.7519 229.3822 14.24432045453890
ISS (ZARYA)
1 25544U 98067A   26186.12116982  .00009813  00000-0  18661-3 0  9999
2 25544  51.6302 211.3234 0006740 257.5366 102.4869 15.48901138574530
UFO 10 (USA 146)
1 25967U 99063A   26184.36220194 -.00000181  00000-0  00000-0 0  9995
2 25967   9.8455  27.1245 0002085  90.6970 270.9591  1.00274578 97518
PCSAT (NO-44)
1 26931U 01043C   26186.03969763  .00000158  00000-0  89765-4 0  9998
2 26931  67.0487 198.0968 0006005 265.8306  94.2109 14.31962418293005
PROBA-1
1 26958U 01049B   26186.25702942  .00003050  00000-0  19801-3 0  9998
2 26958  97.9595 195.4213 0056233  62.5747 298.1184 15.07577807346341
SAUDISAT-1C (SO-50)
1 27607U 02058C   26185.68749616  .00001404  00000-0  18212-3 0  9992
2 27607  64.5520  74.8394 0074817 259.1898 100.0781 14.83086074267058
CUTE-1 (CO-55)
1 27844U 03031E   26186.02060450  .00000393  00000-0  18869-3 0  9992
2 27844  98.6737 194.3551 0010529 129.0136 231.1982 14.24347366194217
CUBESAT XI-IV (CO-57)
1 27848U 03031J   26185.94773638  .00000336  00000-0  16664-3 0  9993
2 27848  98.6769 193.9817 0010103 146.4963 213.6856 14.23630898193909
MOZHAYETS-4 (RS-22)
1 27939U 03042A   26186.35436638  .00000784  00000-0  12887-3 0  9998
2 27939  98.3472  11.2262 0010475 205.5121 274.3612 14.73499680218223
UFO 11 (USA 174)
1 28117U 03057A   26186.09269293 -.00000096  00000-0  00000-0 0  9993
2 28117   8.9415  33.7348 0002885  88.8103 269.5409  1.00272567 82620
CUBESAT XI-V (CO-58)
1 28895U 05043F   26185.38895324  .00001770  00000-0  28553-3 0  9999
2 28895  98.3005 341.3738 0014782 147.1004 213.1126 14.72680865104285
CAPE-1
1 31130U 07012P   26185.65609291  .00002401  00000-0  43600-3 0  9991
2 31130  98.4470 160.6191 0083892  17.6113 342.7967 14.64934095 20910
CUTE-1.7+APD II (CO-65)
1 32785U 08021C   26186.21255739  .00008182  00000-0  51223-3 0  9998
2 32785  97.8292 168.0085 0007802 339.8898  20.2022 15.09637906987915
SEEDS-II (CO-66)
1 32791U 08021J   26185.95469630  .00032385  00000-0  10027-2 0  9990
2 32791  97.7525 184.7084 0001814 182.4533 177.6700 15.33399456990016
YUBILEINY (RS-30)
1 32953U 08025A   26186.28650435  .00000016  00000-0  41759-4 0  9990
2 32953  82.5054 344.1795 0018510 272.0565  87.8395 12.43180230821941
KKS-1 (KISEKI)
1 33499U 09002H   26185.73009765  .00001975  00000-0  24873-3 0  9997
2 33499  98.1181 108.4502 0006659 226.6782 133.3877 14.83172947938791
SWISSCUBE
1 35932U 09051B   26185.47808840  .00001528  00000-0  31098-3 0  9998
2 35932  98.4021  93.6669 0007218 148.5860 211.5774 14.62517748891681
BEESAT
1 35933U 09051C   26185.70190184  .00001172  00000-0  24485-3 0  9997
2 35933  98.3947  93.4931 0005441 158.6227 201.5202 14.61750705891746
ITUPSAT-1
1 35935U 09051E   26185.70814032  .00001186  00000-0  25471-3 0  9995
2 35935  98.4031  92.6727 0007317 174.2685 185.8600 14.60469280891293
PROBA-2
1 36037U 09059B   26185.98453645  .00000276  00000-0  74883-4 0  9997
2 36037  98.2456   9.0909 0012341 221.6439 138.3819 14.54870751884117
XIWANG-1 (HOPE-1)
1 36122U 09072B   26186.25567351 -.00000285  00000-0 -63100-3 0  9999
2 36122 100.4037 139.8001 0007266 187.7051 172.3951 13.16438328795382
EWS-G2 (GOES-15)
1 36411U 10008A   26186.16149041  .00000034  00000-0  00000-0 0  9990
2 36411   1.3238  82.6026 0005365  48.3025 273.8354  1.00268352 59811
TISAT-1
1 36799U 10035E   26185.29489229  .00030047  00000-0  96087-3 0  9997
2 36799  98.0712 133.3699 0003635 140.6786 219.4718 15.32381693870329
HORYU-2
1 38340U 12025D   26185.82066973  .00005505  00000-0  55985-3 0  9991
2 38340  98.2202 319.4811 0009120 121.6199 238.5909 14.91184910751356
AAUSAT-3
1 39087U 13009B   26185.96937368  .00000875  00000-0  29138-3 0  9999
2 39087  98.3708   9.3589 0011908 153.0382 207.1428 14.39963446699736
STRAND-1
1 39090U 13009E   26185.94874964  .00000402  00000-0  14932-3 0  9995
2 39090  98.3930   5.7465 0008800 169.9743 190.1621 14.37174843699610
CUBEBUG-1 (CAPITAN BETO)
1 39153U 13018D   26185.87700182  .00005254  00000-0  45629-3 0  9994
2 39153  98.1702 346.6078 0013167  89.7683 270.5046 14.97424641713718
PROBA-V
1 39159U 13021A   26185.69031730  .00000182  00000-0  98030-4 0  9990
2 39159  98.3596 163.4337 0005419  83.5847 276.5949 14.23601984683603
ZACUBE-1 (TSHEPISOSAT)
1 39417U 13066B   26185.93716864  .00005365  00000-0  41369-3 0  9991
2 39417  97.8032 148.3633 0043237 188.1764 171.8761 15.01294497683399
TRITON-1
1 39427U 13066M   26186.25871303  .00003392  00000-0  40745-3 0  9993
2 39427  97.8230  95.6537 0089823 174.3714 185.8531 14.81772501676767
DELFI-N3XT
1 39428U 13066N   26185.71211452  .00012394  00000-0  10681-2 0  9994
2 39428  97.8321 106.0078 0075132 147.3581 213.2317 14.95267993677247
GOMX-1
1 39430U 13066Q   26186.29830758  .00002048  00000-0  31144-3 0  9990
2 39430  97.6469  25.6175 0129131  19.9587 340.6605 14.69521745672579
VELOX-PII
1 39438U 13066Y   26185.86037847  .00004484  00000-0  42400-3 0  9991
2 39438  97.8747 137.2464 0051144 284.8104  74.7453 14.93217541680472
CUBEBUG-2 (LO-74)
1 39440U 13066AA  26186.28247977  .00007070  00000-0  64944-3 0  9999
2 39440  97.8914 135.3391 0056357 329.1937  30.5979 14.93923546679691
FUNCUBE-1 (AO-73)
1 39444U 13066AE  26185.88720520  .00011803  00000-0  72371-3 0  9990
2 39444  97.8283 157.7053 0037406 141.4256 218.9657 15.09718097682331
UWE-3
1 39446U 13066AG  26185.86074106  .00005022  00000-0  43020-3 0  9997
2 39446  97.8705 142.0564 0047343 260.6060  98.9807 14.97156601680226
UNISAT-6
1 40012U 14033C   26186.21880997  .00003681  00000-0  39636-3 0  9993
2 40012  97.7902 338.6157 0045018  10.8555 349.3623 14.88337835648848
DUCHIFAT-1
1 40021U 14033M   26185.71700957  .00213562  00000-0  18351-2 0  9995
2 40021  98.0425 247.3916 0000551 273.4953  86.6243 15.68680703658498
SMAP
1 40376U 15003A   26186.19953154  .00000595  00000-0  12429-3 0  9999
2 40376  98.1278 193.0390 0001513  98.5585 261.5789 14.63383694610251
LILACSAT-2
1 40908U 15049K   26186.26392541  .00024281  00000-0  40290-3 0  9990
2 40908  97.4623 223.7972 0007524 172.1339 188.0033 15.52087952598559
LAPAN-A2 (IO-86)
1 40931U 15052B   25151.18580782  .00001310  00000-0  87238-4 0  9990
2 40931   6.0001  24.1284 0012872 339.0660  20.8941 14.78806187523042
LQSAT
1 40958U 15057A   26186.29610190  .00001016  00000-0  15136-3 0  9992
2 40958  97.6688 178.7752 0016002 209.2525 150.7792 14.76807064577983
PRATHAM
1 41783U 16059A   26185.42960396  .00000789  00000-0  14744-3 0  9992
2 41783  97.8328 181.5301 0031667 161.1507 199.0878 14.67216000522047
ALSAT-1N
1 41789U 16059G   26186.23020181  .00000850  00000-0  15104-3 0  9997
2 41789  97.8006 188.7779 0027037 127.9471 232.4185 14.69335924522659
CAS-2T & KS-1Q
1 41847U 16066G   26185.48597832  .00001682  00000-0  24203-3 0  9992
2 41847  98.3815 261.0243 0342747  77.1704 286.7545 14.44750691507292
GOES-16
1 41866U 16071A   26186.12824920 -.00000078  00000-0  00000-0 0  9997
2 41866   0.3821  85.6748 0000505  50.8917  88.0478  1.00271840 35285
FENGYUN-4A
1 41882U 16077A   26186.24470711 -.00000344  00000-0  00000-0 0  9995
2 41882   2.3656  80.0895 0008007 157.9112 257.1046  1.00274475 35113
